POLYITAN-1              
1 40042U 14033AJ  26192.58391801  .00011351  00000+0  34589-3 0  9998
2 40042  98.0942 221.1671 0008186  74.8033 285.4113 15.34132156657331
TIGRISAT                
1 40043U 14033AK  26192.36972540  .00000887  00000+0  10764-3 0  9991
2 40043  97.7858 341.8319 0048956 356.9649   3.1262 14.85242878649215
AEROCUBE 6A             
1 40045U 14033AM  26190.73142161  .00003408  00000+0  28750-3 0  9996
2 40045  97.7235 357.4445 0036915 299.7682  59.9870 14.98308817649991
AEROCUBE 6B             
1 40046U 14033AN  26191.24554496  .00003186  00000+0  25890-3 0  9997
2 40046  97.7203 357.7928 0037944 287.6201  72.0880 14.99771692650212
CANX-4                  
1 40055U 14034C   26192.60482886  .00000461  00000+0  66414-4 0  9993
2 40055  98.3090  68.8109 0011517 295.6910  64.3112 14.81307437648142
CANX-5                  
1 40056U 14034D   26192.60297698  .00000458  00000+0  65985-4 0  9997
2 40056  98.3092  68.8540 0011519 295.9041  64.0982 14.81324741638951
UKUBE-1                 
1 40074U 14037F   26192.95667085  .00005077  00000+0  28459-3 0  9995
2 40074  98.4242 198.8382 0003280  93.2420 266.9184 15.13920284652305
BRITE-PL2 (HEWELIUSZ)   
1 40119U 14049B   26192.87582480  .00001013  00000+0  98740-4 0  9991
2 40119  97.9118 305.0697 0014633  33.0365 327.1766 14.94681645645138
AEROCUBE 5C             
1 40965U 15058B   26190.02939822  .00001855  00000+0  17147-3 0  9997
2 40965  64.7653 194.6344 0131922  54.7863 306.5516 14.91551276368913
AEROCUBE 7              
1 40966U 15058C   26192.36980397  .00003081  00000+0  25064-3 0  9990
2 40966  64.7604 169.0605 0121752  52.2144 308.9921 14.95890731369576
FOX-1A (AO-85)          
1 40967U 15058D   26192.02911054  .00001601  00000+0  15193-3 0  9996
2 40967  64.7731 204.8837 0132046  47.3799 313.8357 14.91072604117129
SINOD-D 1               
1 40968U 15058E   26192.41172871  .00002981  00000+0  24247-3 0  9998
2 40968  64.7731 183.0409 0120742  43.5992 317.4586 14.96065583120284
SNAP-3 ALICE            
1 40970U 15058G   26192.93096847  .00091094  00000+0  84580-3 0  9995
2 40970  64.7491  17.9897 0024101 350.3600   9.7083 15.66570748120750
LMRST-SAT               
1 40971U 15058H   26191.31966356  .00001755  00000+0  16606-3 0  9997
2 40971  64.7738 203.4710 0133546  49.6543 311.6141 14.90686200117000
SNAP-3 EDDIE            
1 40972U 15058J   26192.83757976  .00102073  00000+0  89572-3 0  9999
2 40972  64.7396   8.8536 0025165 353.3710   6.7103 15.67881370122884
PROPCUBE 3              
1 40973U 15058K   26192.97126222  .00002534  00000+0  21526-3 0  9995
2 40973  64.7665 175.0918 0125512  50.2324 310.9764 14.94400058118502
BISONSAT                
1 40974U 15058L   26192.82836732  .00008769  00000+0  41624-3 0  9991
2 40974  64.7588  93.9345 0081797  37.2712 323.4050 15.16872283119350
SNAP-3 JIMI             
1 40975U 15058M   26192.28512113  .00004584  00000+0  31540-3 0  9993
2 40975  64.7632 143.5121 0107545  45.8501 315.1396 15.02574155117841
PROPCUBE 1 (FLORA)      
1 40976U 15058N   26192.50451919  .00001281  00000+0  13042-3 0  9993
2 40976  64.7727 219.8641 0132215  51.4946 309.7934 14.89317080119888
SINOD-D 3               
1 40977U 15058P   26192.47145111  .00002388  00000+0  20732-3 0  9997
2 40977  64.7701 199.9779 0120761  48.5870 312.5545 14.94155488118389
RAVAN                   
1 41849U 16067B   26192.67552220  .00036242  00000+0  49865-3 0  9996
2 41849  97.9846  85.1192 0001856 241.0281 119.0786 15.57194601531500
CELTEE 1                
1 41850U 16067C   26192.56771220  .00003179  00000+0  15158-3 0  9990
2 41850  98.0646  60.7979 0002193 114.9916 245.1545 15.19919001529588
OPTICUBE 04             
1 41851U 16067D   26192.66871666  .00001670  00000+0  10759-3 0  9993
2 41851  98.0681  46.2285 0016417  39.3229 320.9187 15.09763961528863
AEROCUBE 8D             
1 41852U 16067E   26192.63698179  .00004292  00000+0  17666-3 0  9994
2 41852  98.0654  64.6700 0004751  65.5953 294.5778 15.24738190529791
AEROCUBE 8C             
1 41853U 16067F   26192.59231033  .00004575  00000+0  18668-3 0  9999
2 41853  98.0530  61.8186 0004641 355.5384   4.5809 15.24991832529787
CORVUS BC2              
1 42846U 17042X   26191.31136565  .00002103  00000+0  14633-3 0  9992
2 42846  97.4090 351.7667 0013871  39.1681 321.0548 15.06442373490548
CORVUS BC1              
1 42847U 17042Y   26192.89740495  .00001341  00000+0  94397-4 0  9999
2 42847  97.4117 354.1218 0011945  12.2872 347.8644 15.06611168490815
MAKERSAT 0              
1 43016U 17073D   26192.66574421  .00011419  00000+0  30302-3 0  9993
2 43016  97.4597  75.3853 0105272 184.8237 175.2002 15.32918937470217
SIRION PATHFINDER-2     
1 43759U 18099B   26192.69136833  .00003035  00000+0  16708-3 0  9999
2 43759  97.4245 241.1675 0008128 204.5244 155.5602 15.14760800416330
CORVUS BC4              
1 43767U 18099K   26192.66518042  .00002806  00000+0  16394-3 0  9997
2 43767  97.4058 234.9296 0006488 276.4412  83.6081 15.12684923416108
